start=new Date('2022-12-20T00:00:00.000Z').valueOf();
sats=[{"TIME_SYSTEM":"UTC","REV_AT_EPOCH":"8716","CENTER_NAME":"EARTH","LAUNCH_DATE":"2021-05-26","RA_OF_ASC_NODE":"307.6913","MEAN_MOTION_DDOT":"0.0000000000000","REF_FRAME":"TEME","CLASSIFICATION_TYPE":"U","GP_ID":"220934070","FILE":"3711365","PERIAPSIS":"546.152","MEAN_MOTION":"15.06386932","MEAN_MOTION_DOT":"0.00001411","ECCENTRICITY":"0.00015910","DECAY_DATE":null,"SEMIMAJOR_AXIS":"6925.389","OBJECT_ID":"2021-044BC","EPHEMERIS_TYPE":"0","TLE_LINE2":"2 48688  53.0548 307.6913 0001591  69.1903 290.9256 15.06386932 87162","COUNTRY_CODE":"US","MEAN_ANOMALY":"290.9256","INCLINATION":"53.0548","TLE_LINE1":"1 48688U 21044BC  22353.28950821  .00001411  00000-0  11366-3 0  9992","SITE":"AFETR","MEAN_ELEMENT_THEORY":"SGP4","OBJECT_NAME":"STARLINK-2742","PERIOD":"95.593","ELEMENT_SET_NO":"999","RCS_SIZE":"LARGE","NORAD_CAT_ID":"48688","APOAPSIS":"548.355","ARG_OF_PERICENTER":"69.1903","EPOCH":"2022-12-19T06:56:53.509344","BSTAR":"0.00011366000000","OBJECT_TYPE":"PAYLOAD"},{"TIME_SYSTEM":"UTC","CENTER_NAME":"EARTH","REV_AT_EPOCH":"8714","RA_OF_ASC_NODE":"311.1576","MEAN_MOTION_DDOT":"0.0000000000000","REF_FRAME":"TEME","LAUNCH_DATE":"2021-05-26","MEAN_MOTION_DOT":"0.00002005","FILE":"3711774","GP_ID":"220967481","PERIAPSIS":"546.205","MEAN_MOTION":"15.06386123","CLASSIFICATION_TYPE":"U","DECAY_DATE":null,"ECCENTRICITY":"0.00015180","EPHEMERIS_TYPE":"0","OBJECT_ID":"2021-044BD","SEMIMAJOR_AXIS":"6925.391","COUNTRY_CODE":"US","MEAN_ANOMALY":"287.9679","TLE_LINE2":"2 48689  53.0553 311.1576 0001518  72.1475 287.9679 15.06386123 87146","INCLINATION":"53.0553","TLE_LINE1":"1 48689U 21044BD  22353.62630649  .00002005  00000-0  15351-3 0  9992","SITE":"AFETR","RCS_SIZE":"LARGE","ELEMENT_SET_NO":"999","PERIOD":"95.593","MEAN_ELEMENT_THEORY":"SGP4","OBJECT_NAME":"STARLINK-2617","EPOCH":"2022-12-19T15:01:52.880736","ARG_OF_PERICENTER":"72.1475","APOAPSIS":"548.307","NORAD_CAT_ID":"48689","BSTAR":"0.00015351000000","OBJECT_TYPE":"PAYLOAD"},{"NORAD_CAT_ID":"48690","APOAPSIS":"548.302","EPOCH":"2022-12-19T15:11:10.081248","ARG_OF_PERICENTER":"71.0125","BSTAR":"0.00009502000000","OBJECT_TYPE":"PAYLOAD","PERIOD":"95.592","MEAN_ELEMENT_THEORY":"SGP4","OBJECT_NAME":"STARLINK-2740","RCS_SIZE":"LARGE","ELEMENT_SET_NO":"999","INCLINATION":"53.0549","SITE":"AFETR","TLE_LINE1":"1 48690U 21044BE  22353.63275557  .00001134  00000-0  95020-4 0  9992","OBJECT_ID":"2021-044BE","SEMIMAJOR_AXIS":"6925.360","EPHEMERIS_TYPE":"0","MEAN_ANOMALY":"289.1032","COUNTRY_CODE":"US","TLE_LINE2":"2 48690  53.0549 321.1528 0001555  71.0125 289.1032 15.06396229 87002","CLASSIFICATION_TYPE":"U","MEAN_MOTION_DOT":"0.00001134","PERIAPSIS":"546.148","GP_ID":"220966734","FILE":"3711774","MEAN_MOTION":"15.06396229","ECCENTRICITY":"0.00015550","DECAY_DATE":null,"CENTER_NAME":"EARTH","REV_AT_EPOCH":"8700","LAUNCH_DATE":"2021-05-26","MEAN_MOTION_DDOT":"0.0000000000000","REF_FRAME":"TEME","RA_OF_ASC_NODE":"321.1528","TIME_SYSTEM":"UTC"},{"ARG_OF_PERICENTER":"58.2443","EPOCH":"2022-12-19T20:54:10.725408","APOAPSIS":"548.162","NORAD_CAT_ID":"48691","BSTAR":"0.00004212800000","OBJECT_TYPE":"PAYLOAD","INCLINATION":"53.0560","TLE_LINE1":"1 48691U 21044BF  22353.87095747  .00000346  00000-0  42128-4 0  9995","SITE":"AFETR","ELEMENT_SET_NO":"999","RCS_SIZE":"LARGE","OBJECT_NAME":"STARLINK-2750","MEAN_ELEMENT_THEORY":"SGP4","PERIOD":"95.593","FILE":"3711774","GP_ID":"220966984","PERIAPSIS":"546.302","MEAN_MOTION":"15.06394119","MEAN_MOTION_DOT":"0.00000346","CLASSIFICATION_TYPE":"U","DECAY_DATE":null,"ECCENTRICITY":"0.00013430","EPHEMERIS_TYPE":"0","SEMIMAJOR_AXIS":"6925.367","OBJECT_ID":"2021-044BF","TLE_LINE2":"2 48691  53.0560 315.0858 0001343  58.2443 301.8677 15.06394119 87114","COUNTRY_CODE":"US","MEAN_ANOMALY":"301.8677","TIME_SYSTEM":"UTC","REV_AT_EPOCH":"8711","CENTER_NAME":"EARTH","MEAN_MOTION_DDOT":"0.0000000000000","REF_FRAME":"TEME","RA_OF_ASC_NODE":"315.0858","LAUNCH_DATE":"2021-05-26"},{"FILE":"3711774","GP_ID":"220967235","PERIAPSIS":"546.212","MEAN_MOTION":"15.06401537","MEAN_MOTION_DOT":"0.00002172","CLASSIFICATION_TYPE":"U","DECAY_DATE":null,"ECCENTRICITY":"0.00014390","EPHEMERIS_TYPE":"0","SEMIMAJOR_AXIS":"6925.344","OBJECT_ID":"2021-044BG","TLE_LINE2":"2 48692  53.0551 315.5705 0001439  71.7553 288.3593 15.06401537 87107","MEAN_ANOMALY":"288.3593","COUNTRY_CODE":"US","TIME_SYSTEM":"UTC","REV_AT_EPOCH":"8710","CENTER_NAME":"EARTH","MEAN_MOTION_DDOT":"0.0000000000000","RA_OF_ASC_NODE":"315.5705","REF_FRAME":"TEME","LAUNCH_DATE":"2021-05-26","ARG_OF_PERICENTER":"71.7553","EPOCH":"2022-12-19T18:57:26.024256","NORAD_CAT_ID":"48692","APOAPSIS":"548.205","OBJECT_TYPE":"PAYLOAD","BSTAR":"0.00016464000000","INCLINATION":"53.0551","TLE_LINE1":"1 48692U 21044BG  22353.78988454  .00002172  00000-0  16464-3 0  9994","SITE":"AFETR","ELEMENT_SET_NO":"999","RCS_SIZE":"LARGE","OBJECT_NAME":"STARLINK-2752","MEAN_ELEMENT_THEORY":"SGP4","PERIOD":"95.592"},{"DECAY_DATE":null,"ECCENTRICITY":"0.00013100","MEAN_MOTION_DOT":"0.00002320","FILE":"3709623","GP_ID":"220867481","PERIAPSIS":"546.277","MEAN_MOTION":"15.06409636","CLASSIFICATION_TYPE":"U","COUNTRY_CODE":"US","MEAN_ANOMALY":"270.9181","TLE_LINE2":"2 48693  53.0564 325.4737 0001310  89.1959 270.9181 15.06409636 86868","EPHEMERIS_TYPE":"0","OBJECT_ID":"2021-044BH","SEMIMAJOR_AXIS":"6925.319","TIME_SYSTEM":"UTC","REF_FRAME":"TEME","MEAN_MOTION_DDOT":"0.0000000000000","RA_OF_ASC_NODE":"325.4737","LAUNCH_DATE":"2021-05-26","CENTER_NAME":"EARTH","REV_AT_EPOCH":"8686","OBJECT_TYPE":"PAYLOAD","BSTAR":"0.00017452000000","EPOCH":"2022-12-18T16:04:27.545664","ARG_OF_PERICENTER":"89.1959","NORAD_CAT_ID":"48693","APOAPSIS":"548.091","TLE_LINE1":"1 48693U 21044BH  22352.66976326  .00002320  00000-0  17452-3 0  9999","SITE":"AFETR","INCLINATION":"53.0564","RCS_SIZE":"LARGE","ELEMENT_SET_NO":"999","PERIOD":"95.592","OBJECT_NAME":"STARLINK-2618","MEAN_ELEMENT_THEORY":"SGP4"},{"RCS_SIZE":"LARGE","ELEMENT_SET_NO":"999","PERIOD":"95.592","OBJECT_NAME":"STARLINK-2748","MEAN_ELEMENT_THEORY":"SGP4","TLE_LINE1":"1 48694U 21044BJ  22353.63319276  .00001551  00000-0  12305-3 0  9990","SITE":"AFETR","INCLINATION":"53.0561","OBJECT_TYPE":"PAYLOAD","BSTAR":"0.00012305000000","EPOCH":"2022-12-19T15:11:47.854464","ARG_OF_PERICENTER":"54.9964","NORAD_CAT_ID":"48694","APOAPSIS":"548.436","RA_OF_ASC_NODE":"326.1446","MEAN_MOTION_DDOT":"0.0000000000000","REF_FRAME":"TEME","LAUNCH_DATE":"2021-05-26","CENTER_NAME":"EARTH","REV_AT_EPOCH":"8693","TIME_SYSTEM":"UTC","COUNTRY_CODE":"US","MEAN_ANOMALY":"305.1188","TLE_LINE2":"2 48694  53.0561 326.1446 0001740  54.9964 305.1188 15.06394460 86938","EPHEMERIS_TYPE":"0","OBJECT_ID":"2021-044BJ","SEMIMAJOR_AXIS":"6925.366","DECAY_DATE":null,"ECCENTRICITY":"0.00017400","MEAN_MOTION_DOT":"0.00001551","MEAN_MOTION":"15.06394460","GP_ID":"220966234","FILE":"3711774","PERIAPSIS":"546.026","CLASSIFICATION_TYPE":"U"},{"EPHEMERIS_TYPE":"0","OBJECT_ID":"2021-044BK","SEMIMAJOR_AXIS":"6925.342","COUNTRY_CODE":"US","MEAN_ANOMALY":"315.3143","TLE_LINE2":"2 48695  53.0563 326.0950 0002134  44.8018 315.3143 15.06402099 86949","MEAN_MOTION_DOT":"0.00001539","FILE":"3711774","GP_ID":"220966484","MEAN_MOTION":"15.06402099","PERIAPSIS":"545.729","CLASSIFICATION_TYPE":"U","DECAY_DATE":null,"ECCENTRICITY":"0.00021340","REV_AT_EPOCH":"8694","CENTER_NAME":"EARTH","RA_OF_ASC_NODE":"326.0950","MEAN_MOTION_DDOT":"0.0000000000000","REF_FRAME":"TEME","LAUNCH_DATE":"2021-05-26","TIME_SYSTEM":"UTC","EPOCH":"2022-12-19T15:45:00.589248","ARG_OF_PERICENTER":"44.8018","NORAD_CAT_ID":"48695","APOAPSIS":"548.685","BSTAR":"0.00012220000000","OBJECT_TYPE":"PAYLOAD","RCS_SIZE":"LARGE","ELEMENT_SET_NO":"999","PERIOD":"95.592","OBJECT_NAME":"STARLINK-2616","MEAN_ELEMENT_THEORY":"SGP4","INCLINATION":"53.0563","TLE_LINE1":"1 48695U 21044BK  22353.65625682  .00001539  00000-0  12220-3 0  9996","SITE":"AFETR"},{"ELEMENT_SET_NO":"999","RCS_SIZE":"LARGE","OBJECT_NAME":"STARLINK-2753","MEAN_ELEMENT_THEORY":"SGP4","PERIOD":"95.592","TLE_LINE1":"1 48696U 21044BL  22353.64658027  .00000846  00000-0  75710-4 0  9999","SITE":"AFETR","INCLINATION":"53.0577","BSTAR":"0.00007571000000","OBJECT_TYPE":"PAYLOAD","ARG_OF_PERICENTER":"55.4147","EPOCH":"2022-12-19T15:31:04.535328","NORAD_CAT_ID":"48696","APOAPSIS":"548.280","RA_OF_ASC_NODE":"331.1372","MEAN_MOTION_DDOT":"0.0000000000000","REF_FRAME":"TEME","LAUNCH_DATE":"2021-05-26","REV_AT_EPOCH":"8771","CENTER_NAME":"EARTH","TIME_SYSTEM":"UTC","TLE_LINE2":"2 48696  53.0577 331.1372 0001557  55.4147 304.6989 15.06403802 87717","MEAN_ANOMALY":"304.6989","COUNTRY_CODE":"US","EPHEMERIS_TYPE":"0","SEMIMAJOR_AXIS":"6925.337","OBJECT_ID":"2021-044BL","DECAY_DATE":null,"ECCENTRICITY":"0.00015570","GP_ID":"220972926","PERIAPSIS":"546.124","FILE":"3711826","MEAN_MOTION":"15.06403802","MEAN_MOTION_DOT":"0.00000846","CLASSIFICATION_TYPE":"U"},{"TLE_LINE1":"1 48697U 21044BM  22353.67606057  .00007698  00000-0  53492-3 0  9993","SITE":"AFETR","INCLINATION":"53.0562","PERIOD":"95.591","OBJECT_NAME":"STARLINK-2715","MEAN_ELEMENT_THEORY":"SGP4","RCS_SIZE":"LARGE","ELEMENT_SET_NO":"999","BSTAR":"0.00053492000000","OBJECT_TYPE":"PAYLOAD","NORAD_CAT_ID":"48697","APOAPSIS":"548.399","EPOCH":"2022-12-19T16:13:31.633248","ARG_OF_PERICENTER":"60.5608","TIME_SYSTEM":"UTC","LAUNCH_DATE":"2021-05-26","RA_OF_ASC_NODE":"330.9644","MEAN_MOTION_DDOT":"0.0000000000000","REF_FRAME":"TEME","CENTER_NAME":"EARTH","REV_AT_EPOCH":"8771","ECCENTRICITY":"0.00017670","DECAY_DATE":null,"CLASSIFICATION_TYPE":"U","MEAN_MOTION_DOT":"0.00007698","FILE":"3711829","GP_ID":"220972972","MEAN_MOTION":"15.06412367","PERIAPSIS":"545.952","MEAN_ANOMALY":"299.5557","COUNTRY_CODE":"US","TLE_LINE2":"2 48697  53.0562 330.9644 0001767  60.5608 299.5557 15.06412367 87712","OBJECT_ID":"2021-044BM","SEMIMAJOR_AXIS":"6925.311","EPHEMERIS_TYPE":"0"}];
